{
    "links": {
        "self": "http://www.neowsapp.com/rest/v1/neo/3837511?api_key=iIulBulltgU6a56xZRHN4H3l9WmuAYTsLGpBGhQ2"
    },
    "id": "3837511",
    "neo_reference_id": "3837511",
    "name": "(2018 YC2)",
    "designation": "2018 YC2",
    "nasa_jpl_url": "http://ssd.jpl.nasa.gov/sbdb.cgi?sstr=3837511",
    "absolute_magnitude_h": 22.7,
    "estimated_diameter": {
        "kilometers": {
            "estimated_diameter_min": 0.0766575574,
            "estimated_diameter_max": 0.1714115092
        },
        "meters": {
            "estimated_diameter_min": 76.6575573531,
            "estimated_diameter_max": 171.4115092306
        },
        "miles": {
            "estimated_diameter_min": 0.0476327831,
            "estimated_diameter_max": 0.1065101409
        },
        "feet": {
            "estimated_diameter_min": 251.5011804664,
            "estimated_diameter_max": 562.3737359442
        }
    },
    "is_potentially_hazardous_asteroid": false,
    "close_approach_data": [
        {
            "close_approach_date": "2018-11-29",
            "close_approach_date_full": "2018-Nov-29 03:07",
            "epoch_date_close_approach": 1543460820000,
            "relative_velocity": {
                "kilometers_per_second": "47.4888519033",
                "kilometers_per_hour": "170959.8668518976",
                "miles_per_hour": "106227.8128225027"
            },
            "miss_distance": {
                "astronomical": "0.1431597732",
                "lunar": "55.6891517748",
                "kilometers": "21416397.140403084",
                "miles": "13307532.1045831992"
            },
            "orbiting_body": "Venus"
        },
        {
            "close_approach_date": "2018-12-15",
            "close_approach_date_full": "2018-Dec-15 13:37",
            "epoch_date_close_approach": 1544881020000,
            "relative_velocity": {
                "kilometers_per_second": "33.0721385769",
                "kilometers_per_hour": "119059.6988768479",
                "miles_per_hour": "73979.0667826725"
            },
            "miss_distance": {
                "astronomical": "0.1197148112",
                "lunar": "46.5690615568",
                "kilometers": "17909080.762972144",
                "miles": "11128186.7652338272"
            },
            "orbiting_body": "Earth"
        }
    ],
    "orbital_data": {
        "orbit_id": "1",
        "orbit_determination_date": "2018-12-25 09:12:02",
        "first_observation_date": "2018-12-20",
        "last_observation_date": "2018-12-25",
        "data_arc_in_days": 5,
        "observations_used": 17,
        "orbit_uncertainty": "9",
        "minimum_orbit_intersection": ".0171028",
        "jupiter_tisserand_invariant": "2.484",
        "epoch_osculation": "2458473.5",
        "eccentricity": ".9292195668000535",
        "semi_major_axis": "2.627927335734163",
        "inclination": "16.41316192819625",
        "ascending_node_longitude": "91.68909980378704",
        "orbital_period": "1556.03175458829",
        "perihelion_distance": ".1860058352412454",
        "perihelion_argument": "223.3007869783726",
        "aphelion_distance": "5.06984883622708",
        "perihelion_time": "2458429.801016181356",
        "mean_anomaly": "10.11009841433106",
        "mean_motion": ".2313577463560519",
        "equinox": "J2000",
        "orbit_class": {
            "orbit_class_type": "APO",
            "orbit_class_description": "Near-Earth asteroid orbits which cross the Earth’s orbit similar to that of 1862 Apollo",
            "orbit_class_range": "a (semi-major axis) > 1.0 AU; q (perihelion) < 1.017 AU"
        }
    },
    "is_sentry_object": false
}